IRIDIUM 7 [-]           
1 24793U 97020B   23339.27763686  .00000550  00000+0  18621-3 0  9998
2 24793  86.3977  51.4260 0002201 101.0810 259.0634 14.35001387391577
IRIDIUM 5 [-]           
1 24795U 97020D   23339.54964017  .00005760  00000+0  57533-3 0  9994
2 24795  86.3930 339.6606 0125281 333.7578  25.7330 14.85553510402155
IRIDIUM 4 [-]           
1 24796U 97020E   23339.26945312  .00000526  00000+0  17466-3 0  9997
2 24796  86.3974  48.6791 0001960  96.0553 264.0867 14.35909908392090
IRIDIUM 914 [-]         
1 24836U 97030A   23339.26378212  .00000753  00000+0  23411-3 0  9991
2 24836  86.3948  58.9209 0000393 135.5552 224.5679 14.39735736526531
IRIDIUM 16 [-]          
1 24841U 97030F   23339.37117899  .00000755  00000+0  24515-3 0  9999
2 24841  86.4036  80.3597 0004217 100.2067 259.9607 14.37621533386549
IRIDIUM 17 [-]          
1 24870U 97034B   23339.42625369  .00000828  00000+0  27444-3 0  9992
2 24870  86.3948 109.9987 0003402  72.0230 288.1338 14.36712222383183
IRIDIUM 920 [-]         
1 24871U 97034C   23339.38209339  .00000814  00000+0  24984-3 0  9994
2 24871  86.3971  90.5451 0013333 122.9357 237.3127 14.40436322385969
